#dP2022 12 27  6  0  0.00000000      96 __u+U ITR00 EXT  IAC
## 2242 194400.00000000   900.00000000 59940 0.2500000000000
+  117   C06C07C08C09C10C11C12C13C14C16C19C20C21C22C23C24C25
+        C26C27C28C29C30C32C33C34C36C37C38C39C40C41C42C43C44
+        C45C46E01E02E03E04E05E07E08E09E10E11E12E13E14E15E18
+        E19E21E24E25E26E27E30E31E33E34E36G01G02G03G04G05G06
+        G07G08G09G10G11G12G13G14G15G16G17G18G19G20G21G22G23
+        G24G25G26G27G29G30G31G32J02J03J04R01R02R03R04R05R07
+        R08R09R11R12R13R14R15R16R17R18R19R20R21R24R25  0  0
++        10  9  9  9  9 10  9  9  9 10  8  8  9  9  8  9 10
++        10  8  8  9  9  9 10 10  8  9  9 10 11  9  8  9  9
++         9  9  8  7  8  8  8  9  8  8  8  8  8  8  8  8  7
++         8  8  7  8  8  8  8  7  8  8  8  8  7  8  8  9  8
++         8  8  8  8  8  7  7  7  8  8  7  7  7  9  8  8 10
++         7  7  8  8  7  8  7  8 10  9 10  8  9  9  8 10  8
++         7  8  9  8  8  9  7  9  8  8 10 10  7 10  9  0  0
%c M  cc GPS ccc cccc cccc cccc cccc ccccc ccccc ccccc ccccc
%c cc cc ccc ccc cccc cccc cccc cccc ccccc ccccc ccccc ccccc
%f  0.0000000  0.000000000  0.00000000000  0.000000000000000
%f  0.0000000  0.000000000  0.00000000000  0.000000000000000
%i    0    0    0    0      0      0      0      0         0
%i    0    0    0    0      0      0      0      0         0
/* IAC                                ULTRA-RAPID PREDICTION
/* S/V CLOCKS ARE ALIGNED TO GNSS TIME                      
/* G:C1WC2W R:C1PC2P E:C1XC5X C:C2IC6I J:C1CC2S             
/* PCV:IGS20_2239 OL/AL:FES2004  NONE     YN ORB:CoN CLK:CoN
*  2022 12 28  2 15  0.00000000
PC06   -487.591535  29743.063724  29973.301831    211.354550
PC07 -14559.135825  29893.510178 -25974.393169     99.143357
PC08 -10099.661057  40777.625456  -2271.151244    525.550938
PC09   6095.266781  33357.899077  25762.002015   -772.731125
PC10  -9200.817097  29769.938625 -28288.496152     43.412054
PC11   4353.166973 -15552.092228  22835.762612   -210.988573
PC12  19637.545636  -1821.955284  19784.560008    367.713527
PC13  -5451.957417  41496.314860   3757.367604    169.056738
PC14  14084.172434 -18358.489849 -15550.299324    308.746164
PC16  -3843.843542  27389.351178  32093.303342     93.532088
PC19  -4159.878936  17822.724149  21091.870611   -900.400977
PC20 -20603.937218  16477.473069   9137.712297    789.866707
PC21  25836.762458  -5007.772486   9273.540181   -921.813185
PC22  15459.355390   8964.847078  21425.481670   -716.592498
PC23 -10390.872467 -19667.633619  16853.728717   -870.825298
PC24  13103.116089 -19034.799394 -15684.734693   -617.184116
PC25    501.562810 -27849.037122   1902.924218     46.317277
PC26  16362.790638  -1465.868163 -22577.312807    -56.055201
PC27 -23683.456673  -5298.697832 -13779.033452     72.830231
PC28 -21546.819184 -17577.551067   2373.219220     52.258742
PC29   6654.790705  19847.936557 -18456.361973     59.617916
PC30 -12859.057537  10295.652237 -22524.951007      1.269507
PC32 -25788.694730   5167.001750  -9319.203335   -668.335219
PC33   4150.522649 -17880.061496 -21015.439407   -887.647151
PC34  11829.616171 -11166.294864  22669.575219     70.783263
PC36  -1597.292520  27823.859423  -1266.606239   -736.077258
PC37 -16292.877340   -596.158662  22652.927826   -866.294499
PC38 -13512.250322  38743.602368  -9296.661801     47.989465
PC39  -7154.301974  24538.539484  33585.515817     -1.195547
PC40 -22747.011966  24138.667949 -26163.503276    -11.165994
PC41 -14983.927176  -9309.279508 -21572.646458   -428.428368
PC42  21393.992554 -16037.782951  -7925.498060   -935.903558
PC43  -5734.974718 -19761.966963  18835.102805     32.362656
PC44  23990.005110   4575.728507  13523.868200    158.900674
PC45  10511.129602  19299.641311 -17187.959408    -40.199252
PC46 -12232.738509  20495.713186  14413.719970    -22.491989
PE01 -20826.257163  19635.812267   7511.553024   -585.409610
PE02  20741.801624 -19870.685761  -7209.255886     11.202978
PE03  21977.079614  -9866.069941 -17205.498742   -634.144036
PE04  -2061.729122  16906.260369  24210.043932    -23.552624
PE05  29434.229143   3157.501520    102.457738   -110.836006
PE07 -19568.574469 -14156.362545 -17114.830310    -10.620559
PE08   2093.934845 -16761.782298 -24312.199666     -9.901902
PE09  19425.241668  14087.074996  17323.583554   -779.432918
PE10   9671.364082  27677.771612  -4048.073126   -500.912879
PE11  15566.975243  24307.340612   6581.943260    201.085089
PE12   2660.968350  26486.392454 -12956.303419   -357.966361
PE13 -15180.634747 -24760.314549  -5694.246550    430.212861
PE14   1577.513993 -15714.896885  18768.111085     96.947907
PE15  -2490.401413 -26340.937301  13280.318474    698.039124
PE18 -11149.941862  17697.233664 -23848.805773   -577.262378
PE19 -23954.702858   8151.839520  15352.575947  -3633.374418
PE21 -20492.193053   3647.588690  21038.397706   -502.869966
PE24   7784.316874  16462.574384 -23344.901841  -1025.852996
PE25  20399.050118  -3346.613432 -21188.605411   -595.910736
PE26 -18843.860126  -7772.949257 -21454.023863  -1868.571704
PE27  -8503.336964 -15713.654772  23602.703583   -473.666153
PE30   9038.382027 -25693.492246  11606.856757  -1113.268183
PE31  -8358.531492  25611.195842 -12244.379117   -511.793928
PE33 -11565.555435  12372.650511 -24266.786556   -455.138552
PE34  11447.368143 -12566.946599  24234.731659    -21.850330
PE36  18837.261486   8683.724998  21127.495603   -481.815921
PG01  15388.390978   1579.532938  21334.214210    231.898031
PG02 -14657.581100   3228.479614 -21266.220879   -630.663654
PG03  20150.310517  -8137.162220  15075.494024   -374.626830
PG04  25392.560081   -271.360732  -7971.625943    -60.215419
PG05 -14531.891286  -5753.938585 -21656.971591   -109.750788
PG06  -5137.487922 -25430.130750   5541.478367    548.490792
PG07   9746.015924 -14299.637619 -19584.393881    267.969280
PG08  25736.478578   6447.041788  -3593.465231   -100.782462
PG09  18516.342787  -9145.432206 -16808.367489   -246.318801
PG10  -8885.062947  22320.700575  11133.726255    -17.960625
PG11 -12116.696810 -22515.548091  -7248.969293    -65.887443
PG12 -20499.785674   5762.537396  15533.847832   -321.132449
PG13 -21151.430274 -13472.055112  -9210.424132    449.474539
PG14  11521.748489 -22182.563465   8805.661845    -60.500026
PG15 -26210.694771  -3885.454675  -3813.507658     -0.370840
PG16  11204.629141  10315.476205 -22056.661731   -525.326121
PG17   5584.605213 -14117.553024  22239.438601    689.179065
PG18  -7783.690267  16944.918198 -18854.813799    -76.019499
PG19  -7507.202772 -16037.191231  19649.746596    256.344458
PG20  -6325.922084 -16906.626876 -19528.136361    460.767352
PG21  18160.350781   9803.993820  17740.139225    153.037353
PG22  10557.348147  16249.721916  18669.727273    393.753526
PG23 -16400.246731  20791.978974    108.513193      0.966626
PG24 -17765.481890  -5197.060370  18846.956058     -4.057667
PG25 -19932.368675  15152.046767   8117.195912    406.065412
PG26   1963.559425  19508.545873 -17865.887864    239.293649
PG27  19283.636642  12824.695160 -13591.410374    141.840092
PG29 -20882.232037   5460.577628 -15571.856835   -576.870258
PG30   1240.211178 -23448.842323 -12070.545038   -534.578828
PG31   5968.777247  25368.099460   3452.803774   -204.584772
PG32  -1334.218671  15304.181157  21828.913127   -344.633567
PJ02 -34361.914925  24227.898030   8722.152363     -0.418286
PJ03 -20331.520070  21578.319020 -25359.735947     -7.648357
PJ04 -27114.870203  32335.047976   9378.994126    116.562346
PR01 -24723.587920   5362.725738  -3292.746353     20.280847
PR02 -17145.744187  11486.176706  14982.708575    -23.355403
PR03    450.728566  11103.257547  22998.377626     69.843367
PR04  17296.520557   4443.838455  18247.215717    170.212529
PR05  24886.308571  -4459.697026   3512.317241    105.246163
PR07  -1161.776796 -10912.507362 -22992.635371     46.912602
PR08 -17445.208252  -4337.147284 -18026.305948    -68.724583
PR09   9762.956739 -22044.913733  -8203.218017     95.389737
PR11  -6875.178995 -12873.577456  20923.581766     11.529086
PR12 -12426.871981   7128.970113  21118.884155     23.919767
PR13 -10370.148305  21134.312516   9794.121901    -30.385890
PR14  -1788.570972  23769.233560  -9093.873429     24.145345
PR15   7324.724959  11967.863386 -21287.686595     92.076383
PR16  12194.350711  -6907.673401 -21302.437656      9.206990
PR17   9781.103000  19094.033220 -13754.040444    590.701967
PR18  18297.689781  17647.140922   2437.855223     58.945128
PR19  17518.994791   8540.738281  16461.044637   -216.121766
PR20   5566.667145  -9183.734143  23149.056313    -84.784629
PR21 -10897.451181 -19472.647124  12389.536390   -360.906526
PR24  -5064.060878  10183.862745 -22807.158130    135.655112
PR25  -8435.407207 -19600.801933  14001.126294     50.038382
EOF
